{
  "norad_id": 50174,
  "name": "STARLINK-3292",
  "history": [
    {
      "epoch": "2026-03-28T11:22:40.474848",
      "apogee_km": 540.7101633565117,
      "perigee_km": 538.8330580340862,
      "latitude_deg": 30.354870948161736,
      "longitude_deg": -37.08836128003895,
      "semi_major_axis_km": 6917.908610695299,
      "eccentricity": 0.00013567,
      "inclination_deg": 53.2165,
      "raan_deg": 160.4061,
      "arg_perigee_deg": 84.9032,
      "mean_anomaly_deg": 275.2115,
      "mean_motion_rev_day": 15.08830767
    }
  ]
}