{"fetched_at":"2026-03-29T02:12:04Z","count":15717,"tles":[{"name":"STARLINK-3292","line1":"1 50174U 21125U   26087.47407957 -.00001806  00000+0 -95420-4 0  9994","line2":"2 50174  53.2165 160.4061 0001356  84.9032 275.2115 15.08830767239541","category":"Starlink"}]}